SL-3 R/B                
1 19046U 88032B   26066.55996753  .00008103  00000+0  37775-3 0  9993
2 19046  97.5195  49.8182 0024319 239.4123 120.4713 15.19879607 51785
SL-16 R/B               
1 19120U 88039B   26066.44364943 -.00000152  00000+0 -49009-4 0  9993
2 19120  71.0131  73.2971 0022658 337.6254  22.3880 14.19615516958060
COSMOS 1953             
1 19210U 88050A   26066.33433726  .00013017  00000+0  46734-3 0  9993
2 19210  82.5103 160.6148 0012442 130.1292 230.1039 15.28476467 37425
SL-8 R/B                
1 19257U 88053B   26066.58037298  .00000344  00000+0  12006-3 0  9992
2 19257  74.0463 116.3549 0021402 295.9237 175.0046 14.38914426976293
COSMOS 1975             
1 19573U 88093A   26066.62930093  .00010153  00000+0  36939-3 0  9997
2 19573  82.5182 119.7534 0011932 170.4114 189.7356 15.28034297 19096
SL-14 R/B               
1 19574U 88093B   26066.44991435  .00000866  00000+0  96755-4 0  9998
2 19574  82.5301  44.1463 0021899  48.5281  67.5482 14.85653721   684
SL-16 R/B               
1 19650U 88102B   26066.64461154  .00000258  00000+0  15456-3 0  9999
2 19650  71.0001 155.8003 0013818   4.8008 355.3245 14.16150772926609
INTERCOSMOS 24          
1 20261U 89080A   26066.57852605  .00000972  00000+0  28932-3 0  9998
2 20261  82.6029 105.7792 1186735 297.7253  50.8395 12.59554373666537
SL-14 R/B               
1 20262U 89080C   26066.63534907  .00000899  00000+0  26710-3 0  9998
2 20262  82.5973 174.5046 1230495 189.4430 168.1459 12.50491104659896
DELTA 1 R/B             
1 20323U 89089B   26066.55155294  .00000468  00000+0  12406-3 0  9993
2 20323  97.0707 274.3303 0070340 128.6437 232.1085 14.50661124895428
ARIANE 40 R/B           
1 20443U 90005H   26066.58981454  .00000380  00000+0  13428-3 0  9992
2 20443  98.3088 127.3139 0009713 204.8599 155.2123 14.39868992892506
DELTA 2 R/B(1)          
1 20453U 90008B   26066.38538323  .00085457  00000+0  10086-2 0  9991
2 20453  35.6042 189.9737 0085932 237.5116 121.7291 15.55634124925771
