CCSDS_OMM_VERS = 2.0
CREATION_DATE  = 
ORIGINATOR     = 

OBJECT_NAME    = SL-3 R/B
OBJECT_ID      = 1988-032B
CENTER_NAME    = EARTH
REF_FRAME      = TEME
TIME_SYSTEM    = UTC
MEAN_ELEMENT_THEORY = SGP/SGP4

EPOCH          = 2026-03-07T13:26:21.194592
MEAN_MOTION    = 15.19879607
ECCENTRICITY   = .0024319
INCLINATION    = 97.5195
RA_OF_ASC_NODE = 49.8182
ARG_OF_PERICENTER = 239.4123
MEAN_ANOMALY   = 120.4713

EPHEMERIS_TYPE = 0
CLASSIFICATION_TYPE = U
NORAD_CAT_ID   = 19046
ELEMENT_SET_NO = 999
REV_AT_EPOCH   = 5178
BSTAR          = .37774944E-3
MEAN_MOTION_DOT = .8103E-4
MEAN_MOTION_DDOT = 0

CCSDS_OMM_VERS = 2.0
CREATION_DATE  = 
ORIGINATOR     = 

OBJECT_NAME    = SL-16 R/B
OBJECT_ID      = 1988-039B
CENTER_NAME    = EARTH
REF_FRAME      = TEME
TIME_SYSTEM    = UTC
MEAN_ELEMENT_THEORY = SGP/SGP4

EPOCH          = 2026-03-07T10:38:51.310752
MEAN_MOTION    = 14.19615516
ECCENTRICITY   = .00226582
INCLINATION    = 71.0131
RA_OF_ASC_NODE = 73.2971
ARG_OF_PERICENTER = 337.6254
MEAN_ANOMALY   = 22.3880

EPHEMERIS_TYPE = 0
CLASSIFICATION_TYPE = U
NORAD_CAT_ID   = 19120
ELEMENT_SET_NO = 999
REV_AT_EPOCH   = 95806
BSTAR          = -.49009401E-4
MEAN_MOTION_DOT = -.152E-5
MEAN_MOTION_DDOT = 0

CCSDS_OMM_VERS = 2.0
CREATION_DATE  = 
ORIGINATOR     = 

OBJECT_NAME    = COSMOS 1953
OBJECT_ID      = 1988-050A
CENTER_NAME    = EARTH
REF_FRAME      = TEME
TIME_SYSTEM    = UTC
MEAN_ELEMENT_THEORY = SGP/SGP4

EPOCH          = 2026-03-07T08:01:26.739264
MEAN_MOTION    = 15.28476467
ECCENTRICITY   = .0012442
INCLINATION    = 82.5103
RA_OF_ASC_NODE = 160.6148
ARG_OF_PERICENTER = 130.1292
MEAN_ANOMALY   = 230.1039

EPHEMERIS_TYPE = 0
CLASSIFICATION_TYPE = U
NORAD_CAT_ID   = 19210
ELEMENT_SET_NO = 999
REV_AT_EPOCH   = 3742
BSTAR          = .46734E-3
MEAN_MOTION_DOT = .13017E-3
MEAN_MOTION_DDOT = 0

CCSDS_OMM_VERS = 2.0
CREATION_DATE  = 
ORIGINATOR     = 

OBJECT_NAME    = SL-8 R/B
OBJECT_ID      = 1988-053B
CENTER_NAME    = EARTH
REF_FRAME      = TEME
TIME_SYSTEM    = UTC
MEAN_ELEMENT_THEORY = SGP/SGP4

EPOCH          = 2026-03-07T13:55:44.225472
MEAN_MOTION    = 14.38914426
ECCENTRICITY   = .00214022
INCLINATION    = 74.0463
RA_OF_ASC_NODE = 116.3549
ARG_OF_PERICENTER = 295.9237
MEAN_ANOMALY   = 175.0046

EPHEMERIS_TYPE = 0
CLASSIFICATION_TYPE = U
NORAD_CAT_ID   = 19257
ELEMENT_SET_NO = 999
REV_AT_EPOCH   = 97629
BSTAR          = .12006485E-3
MEAN_MOTION_DOT = .344E-5
MEAN_MOTION_DDOT = 0

CCSDS_OMM_VERS = 2.0
CREATION_DATE  = 
ORIGINATOR     = 

OBJECT_NAME    = COSMOS 1975
OBJECT_ID      = 1988-093A
CENTER_NAME    = EARTH
REF_FRAME      = TEME
TIME_SYSTEM    = UTC
MEAN_ELEMENT_THEORY = SGP/SGP4

EPOCH          = 2026-03-07T15:06:11.600352
MEAN_MOTION    = 15.28034297
ECCENTRICITY   = .00119324
INCLINATION    = 82.5182
RA_OF_ASC_NODE = 119.7534
ARG_OF_PERICENTER = 170.4114
MEAN_ANOMALY   = 189.7356

EPHEMERIS_TYPE = 0
CLASSIFICATION_TYPE = U
NORAD_CAT_ID   = 19573
ELEMENT_SET_NO = 999
REV_AT_EPOCH   = 1909
BSTAR          = .3693889E-3
MEAN_MOTION_DOT = .10153E-3
MEAN_MOTION_DDOT = 0

CCSDS_OMM_VERS = 2.0
CREATION_DATE  = 
ORIGINATOR     = 

OBJECT_NAME    = SL-14 R/B
OBJECT_ID      = 1988-093B
CENTER_NAME    = EARTH
REF_FRAME      = TEME
TIME_SYSTEM    = UTC
MEAN_ELEMENT_THEORY = SGP/SGP4

EPOCH          = 2026-03-07T10:47:52.599840
MEAN_MOTION    = 14.85653721
ECCENTRICITY   = .0021899
INCLINATION    = 82.5301
RA_OF_ASC_NODE = 44.1463
ARG_OF_PERICENTER = 48.5281
MEAN_ANOMALY   = 67.5482

EPHEMERIS_TYPE = 0
CLASSIFICATION_TYPE = U
NORAD_CAT_ID   = 19574
ELEMENT_SET_NO = 999
REV_AT_EPOCH   = 68
BSTAR          = .96755415E-4
MEAN_MOTION_DOT = .866E-5
MEAN_MOTION_DDOT = 0

CCSDS_OMM_VERS = 2.0
CREATION_DATE  = 
ORIGINATOR     = 

OBJECT_NAME    = SL-16 R/B
OBJECT_ID      = 1988-102B
CENTER_NAME    = EARTH
REF_FRAME      = TEME
TIME_SYSTEM    = UTC
MEAN_ELEMENT_THEORY = SGP/SGP4

EPOCH          = 2026-03-07T15:28:14.437056
MEAN_MOTION    = 14.16150772
ECCENTRICITY   = .00138189
INCLINATION    = 71.0001
RA_OF_ASC_NODE = 155.8003
ARG_OF_PERICENTER = 4.8008
MEAN_ANOMALY   = 355.3245

EPHEMERIS_TYPE = 0
CLASSIFICATION_TYPE = U
NORAD_CAT_ID   = 19650
ELEMENT_SET_NO = 999
REV_AT_EPOCH   = 92660
BSTAR          = .15455632E-3
MEAN_MOTION_DOT = .258E-5
MEAN_MOTION_DDOT = 0

CCSDS_OMM_VERS = 2.0
CREATION_DATE  = 
ORIGINATOR     = 

OBJECT_NAME    = INTERCOSMOS 24
OBJECT_ID      = 1989-080A
CENTER_NAME    = EARTH
REF_FRAME      = TEME
TIME_SYSTEM    = UTC
MEAN_ELEMENT_THEORY = SGP/SGP4

EPOCH          = 2026-03-07T13:53:04.650720
MEAN_MOTION    = 12.59554373
ECCENTRICITY   = .11867352
INCLINATION    = 82.6029
RA_OF_ASC_NODE = 105.7792
ARG_OF_PERICENTER = 297.7253
MEAN_ANOMALY   = 50.8395

EPHEMERIS_TYPE = 0
CLASSIFICATION_TYPE = U
NORAD_CAT_ID   = 20261
ELEMENT_SET_NO = 999
REV_AT_EPOCH   = 66653
BSTAR          = .28931593E-3
MEAN_MOTION_DOT = .972E-5
MEAN_MOTION_DDOT = 0

CCSDS_OMM_VERS = 2.0
CREATION_DATE  = 
ORIGINATOR     = 

OBJECT_NAME    = SL-14 R/B
OBJECT_ID      = 1989-080C
CENTER_NAME    = EARTH
REF_FRAME      = TEME
TIME_SYSTEM    = UTC
MEAN_ELEMENT_THEORY = SGP/SGP4

EPOCH          = 2026-03-07T15:14:54.159648
MEAN_MOTION    = 12.50491104
ECCENTRICITY   = .12304959
INCLINATION    = 82.5973
RA_OF_ASC_NODE = 174.5046
ARG_OF_PERICENTER = 189.4430
MEAN_ANOMALY   = 168.1459

EPHEMERIS_TYPE = 0
CLASSIFICATION_TYPE = U
NORAD_CAT_ID   = 20262
ELEMENT_SET_NO = 999
REV_AT_EPOCH   = 65989
BSTAR          = .26709626E-3
MEAN_MOTION_DOT = .899E-5
MEAN_MOTION_DDOT = 0

CCSDS_OMM_VERS = 2.0
CREATION_DATE  = 
ORIGINATOR     = 

OBJECT_NAME    = DELTA 1 R/B
OBJECT_ID      = 1989-089B
CENTER_NAME    = EARTH
REF_FRAME      = TEME
TIME_SYSTEM    = UTC
MEAN_ELEMENT_THEORY = SGP/SGP4

EPOCH          = 2026-03-07T13:14:14.174016
MEAN_MOTION    = 14.50661124
ECCENTRICITY   = .00703404
INCLINATION    = 97.0707
RA_OF_ASC_NODE = 274.3303
ARG_OF_PERICENTER = 128.6437
MEAN_ANOMALY   = 232.1085

EPHEMERIS_TYPE = 0
CLASSIFICATION_TYPE = U
NORAD_CAT_ID   = 20323
ELEMENT_SET_NO = 999
REV_AT_EPOCH   = 89542
BSTAR          = .12405534E-3
MEAN_MOTION_DOT = .468E-5
MEAN_MOTION_DDOT = 0

CCSDS_OMM_VERS = 2.0
CREATION_DATE  = 
ORIGINATOR     = 

OBJECT_NAME    = ARIANE 40 R/B
OBJECT_ID      = 1990-005H
CENTER_NAME    = EARTH
REF_FRAME      = TEME
TIME_SYSTEM    = UTC
MEAN_ELEMENT_THEORY = SGP/SGP4

EPOCH          = 2026-03-07T14:09:19.976256
MEAN_MOTION    = 14.39868992
ECCENTRICITY   = .00097134
INCLINATION    = 98.3088
RA_OF_ASC_NODE = 127.3139
ARG_OF_PERICENTER = 204.8599
MEAN_ANOMALY   = 155.2123

EPHEMERIS_TYPE = 0
CLASSIFICATION_TYPE = U
NORAD_CAT_ID   = 20443
ELEMENT_SET_NO = 999
REV_AT_EPOCH   = 89250
BSTAR          = .1342849E-3
MEAN_MOTION_DOT = .38E-5
MEAN_MOTION_DDOT = 0

CCSDS_OMM_VERS = 2.0
CREATION_DATE  = 
ORIGINATOR     = 

OBJECT_NAME    = DELTA 2 R/B(1)
OBJECT_ID      = 1990-008B
CENTER_NAME    = EARTH
REF_FRAME      = TEME
TIME_SYSTEM    = UTC
MEAN_ELEMENT_THEORY = SGP/SGP4

EPOCH          = 2026-03-07T09:14:57.111072
MEAN_MOTION    = 15.55634124
ECCENTRICITY   = .00859328
INCLINATION    = 35.6042
RA_OF_ASC_NODE = 189.9737
ARG_OF_PERICENTER = 237.5116
MEAN_ANOMALY   = 121.7291

EPHEMERIS_TYPE = 0
CLASSIFICATION_TYPE = U
NORAD_CAT_ID   = 20453
ELEMENT_SET_NO = 999
REV_AT_EPOCH   = 92577
BSTAR          = .10085842E-2
MEAN_MOTION_DOT = .85457E-3
MEAN_MOTION_DDOT = 0

